{
"type": "FeatureCollection",
"name": "petah_tikva_2",
"crs": { "type": "name", "properties": { "name": "urn:ogc:def:crs:OGC:1.3:CRS84" } },
"features": [
{ "type": "Feature", "properties": { "OBJECTID": 51, "Address_old": "אנדרסן 8", "complex": 1, "Neigborhood": 27, "PlaceName": "אחד העם רמת ורבר", "address": "אנדרסן 8, פתח תקווה", "name": "אחד העם רמת ורבר" }, "geometry": { "type": "Point", "coordinates": [ 34.873644663424805, 32.089539616022599 ] } },
{ "type": "Feature", "properties": { "OBJECTID": 52, "Address_old": "רחל המשוררת 18", "complex": 1, "Neigborhood": 12, "PlaceName": "בן צבי", "address": "רחל המשוררת 18, פתח תקווה", "name": "בן צבי" }, "geometry": { "type": "Point", "coordinates": [ 34.894833783431885, 32.084839521108279 ] } },
{ "type": "Feature", "properties": { "OBJECTID": 53, "Address_old": "אבי אורן 1", "complex": 1, "Neigborhood": 23, "PlaceName": "בן גוריון", "address": "אבי אורן 1, פתח תקווה", "name": "בן גוריון" }, "geometry": { "type": "Point", "coordinates": [ 34.867339971191242, 32.081308643176264 ] } },
{ "type": "Feature", "properties": { "OBJECTID": 54, "Address_old": "שמואל הנגיד 8", "complex": 1, "Neigborhood": 2, "PlaceName": "אולפנת רעות", "address": "שמואל הנגיד 8, פתח תקווה", "name": "אולפנת רעות" }, "geometry": { "type": "Point", "coordinates": [ 34.900295487404705, 32.100030405901791 ] } },
{ "type": "Feature", "properties": { "OBJECTID": 55, "Address_old": "הרב הרצוג 16", "complex": 1, "Neigborhood": 5, "PlaceName": " אמית כפר-הנוער", "address": "הרב הרצוג 16, פתח תקווה", "name": " אמית כפר-הנוער" }, "geometry": { "type": "Point", "coordinates": [ 34.900508880203454, 32.096618091825853 ] } },
{ "type": "Feature", "properties": { "OBJECTID": 56, "Address_old": "עין גנים 71", "complex": 1, "Neigborhood": 10, "PlaceName": "ברנר", "address": "עין גנים 71, פתח תקווה", "name": "ברנר" }, "geometry": { "type": "Point", "coordinates": [ 34.897679557174506, 32.083593226260078 ] } },
{ "type": "Feature", "properties": { "OBJECTID": 57, "Address_old": "זליג בס 17", "complex": 1, "Neigborhood": 19, "PlaceName": "אולפנת ישורון שש שנתי", "address": "זליג בס 17, פתח תקווה", "name": "אולפנת ישורון שש שנתי" }, "geometry": { "type": "Point", "coordinates": [ 34.880161595682331, 32.075441752889425 ] } },
{ "type": "Feature", "properties": { "OBJECTID": 58, "Address_old": "יד הבנים 30", "complex": 1, "Neigborhood": 20, "PlaceName": "ישיבת כפר גנים", "address": "יד הבנים 30, פתח תקווה", "name": "ישיבת כפר גנים" }, "geometry": { "type": "Point", "coordinates": [ 34.881174982254848, 32.073309029922441 ] } },
{ "type": "Feature", "properties": { "OBJECTID": 59, "Address_old": "אחד העם 50", "complex": 1, "Neigborhood": 12, "PlaceName": "ויצו גן ונוף", "address": "אחד העם 50, פתח תקווה", "name": "ויצו גן ונוף" }, "geometry": { "type": "Point", "coordinates": [ 34.891485874227627, 32.084445217697258 ] } },
{ "type": "Feature", "properties": { "OBJECTID": 60, "Address_old": "החמישה 8", "complex": 1, "Neigborhood": 15, "PlaceName": "בית יעקב עיוני", "address": "החמישה 8, פתח תקווה", "name": "בית יעקב עיוני" }, "geometry": { "type": "Point", "coordinates": [ 34.89532550832017, 32.071964508156015 ] } },
{ "type": "Feature", "properties": { "OBJECTID": 61, "Address_old": "רוטשילד 64", "complex": 1, "Neigborhood": 29, "PlaceName": "בית יעקב", "address": "רוטשילד 64, פתח תקווה", "name": "בית יעקב" }, "geometry": { "type": "Point", "coordinates": [ 34.88100853558327, 32.088586100435137 ] } },
{ "type": "Feature", "properties": { "OBJECTID": 62, "Address_old": "הרב צעירי 11", "complex": 1, "Neigborhood": 15, "PlaceName": "חט\"ב שלום", "address": "הרב צעירי 11, פתח תקווה", "name": "חט\"ב שלום" }, "geometry": { "type": "Point", "coordinates": [ 34.896984427785824, 32.071465272961795 ] } },
{ "type": "Feature", "properties": { "OBJECTID": 63, "Address_old": "נצח ישראל 7", "complex": 1, "Neigborhood": 9, "PlaceName": "ישיבת למרחב (צביה)", "address": "נצח ישראל 7, פתח תקווה", "name": "ישיבת למרחב (צביה)" }, "geometry": { "type": "Point", "coordinates": [ 34.900129902968338, 32.090187863219988 ] } },
{ "type": "Feature", "properties": { "OBJECTID": 64, "Address_old": "לוי אשכול 2", "complex": 1, "Neigborhood": 23, "PlaceName": "נוה עוז", "address": "לוי אשכול 2, פתח תקווה", "name": "נוה עוז" }, "geometry": { "type": "Point", "coordinates": [ 34.866598543988033, 32.079941564609982 ] } },
{ "type": "Feature", "properties": { "OBJECTID": 65, "Address_old": "קיש 48", "complex": 1, "Neigborhood": 17, "PlaceName": "יסודות", "address": "קיש 48, פתח תקווה", "name": "יסודות" }, "geometry": { "type": "Point", "coordinates": [ 34.89486587634461, 32.070957444110633 ] } },
{ "type": "Feature", "properties": { "OBJECTID": 66, "Address_old": "עין גנים 27", "complex": 1, "Neigborhood": 11, "PlaceName": "עין גנים", "address": "עין גנים 27, פתח תקווה", "name": "עין גנים" }, "geometry": { "type": "Point", "coordinates": [ 34.89486285886958, 32.087774438273073 ] } },
{ "type": "Feature", "properties": { "OBJECTID": 67, "Address_old": "דוד רמז 38", "complex": 1, "Neigborhood": 8, "PlaceName": "עמל א'(הרב תחומי)", "address": "דוד רמז 38, פתח תקווה", "name": "עמל א'(הרב תחומי)" }, "geometry": { "type": "Point", "coordinates": [ 34.902457828393864, 32.085991820979316 ] } },
{ "type": "Feature", "properties": { "OBJECTID": 68, "Address_old": "המכבים 30", "complex": 1, "Neigborhood": 40, "PlaceName": "נאות מרגלית", "address": "המכבים 30, פתח תקווה", "name": "נאות מרגלית" }, "geometry": { "type": "Point", "coordinates": [ 34.887434127674794, 32.097321923456015 ] } },
{ "type": "Feature", "properties": { "OBJECTID": 69, "Address_old": "בילו 10", "complex": 1, "Neigborhood": 29, "PlaceName": "פיק\"א", "address": "בילו 10, פתח תקווה", "name": "פיק\"א" }, "geometry": { "type": "Point", "coordinates": [ 34.880036122459664, 32.087328329983073 ] } },
{ "type": "Feature", "properties": { "OBJECTID": 70, "Address_old": "הבנים 5", "complex": 1, "Neigborhood": 30, "PlaceName": "קרול", "address": "הבנים 5, פתח תקווה", "name": "קרול" }, "geometry": { "type": "Point", "coordinates": [ 34.883645024082732, 32.095279544605475 ] } },
{ "type": "Feature", "properties": { "OBJECTID": 71, "Address_old": "סביון 23", "complex": 1, "Neigborhood": 21, "PlaceName": "שארית ישראל", "address": "סביון 23, פתח תקווה", "name": "שארית ישראל" }, "geometry": { "type": "Point", "coordinates": [ 34.892278171407021, 32.08663382774283 ] } },
{ "type": "Feature", "properties": { "OBJECTID": 72, "Address_old": "אמסטרדם 11", "complex": 1, "Neigborhood": 24, "PlaceName": "רשיש", "address": "אמסטרדם 11, פתח תקווה", "name": "רשיש" }, "geometry": { "type": "Point", "coordinates": [ 34.865243070728845, 32.082944336905186 ] } },
{ "type": "Feature", "properties": { "OBJECTID": 73, "Address_old": "עין גנים 71", "complex": 1, "Neigborhood": 10, "PlaceName": "שובו יסודי + תיכון", "address": "עין גנים 71, פתח תקווה", "name": "שובו יסודי + תיכון" }, "geometry": { "type": "Point", "coordinates": [ 34.897679557174506, 32.083593226260078 ] } },
{ "type": "Feature", "properties": { "OBJECTID": 74, "Address_old": "חזון איש 4", "complex": 1, "Neigborhood": 11, "PlaceName": "שמעוני", "address": "חזון איש 4, פתח תקווה", "name": "שמעוני" }, "geometry": { "type": "Point", "coordinates": [ 34.894419556649865, 32.091071634887157 ] } },
{ "type": "Feature", "properties": { "OBJECTID": 75, "Address_old": "רוטשילד 164", "complex": 1, "Neigborhood": 21, "PlaceName": "שלהבת", "address": "רוטשילד 164, פתח תקווה", "name": "שלהבת" }, "geometry": { "type": "Point", "coordinates": [ 34.884684542113185, 32.078054126471514 ] } },
{ "type": "Feature", "properties": { "OBJECTID": 76, "Address_old": "יטקובסקי 13", "complex": 1, "Neigborhood": 19, "PlaceName": "ביאליק", "address": "יטקובסקי 13, פתח תקווה", "name": "ביאליק" }, "geometry": { "type": "Point", "coordinates": [ 34.877873729575605, 32.077394601149187 ] } },
{ "type": "Feature", "properties": { "OBJECTID": 77, "Address_old": "וולפסון 31", "complex": 1, "Neigborhood": 11, "PlaceName": "גורדון", "address": "וולפסון 31, פתח תקווה", "name": "גורדון" }, "geometry": { "type": "Point", "coordinates": [ 34.891946509410197, 32.087710545729891 ] } },
{ "type": "Feature", "properties": { "OBJECTID": 78, "Address_old": "רח' יהלום 32", "complex": 1, "Neigborhood": 29, "PlaceName": "יד לבנים", "address": "רח' יהלום 32, פתח תקווה", "name": "יד לבנים" }, "geometry": { "type": "Point", "coordinates": [ 34.889094428028415, 32.094647279147608 ] } },
{ "type": "Feature", "properties": { "OBJECTID": 79, "Address_old": "שפירא 46", "complex": 1, "Neigborhood": 21, "PlaceName": "הס", "address": "שפירא 46, פתח תקווה", "name": "הס" }, "geometry": { "type": "Point", "coordinates": [ 34.88699554706038, 32.079726380056364 ] } },
{ "type": "Feature", "properties": { "OBJECTID": 80, "Address_old": "מוהליבר 10", "complex": 1, "Neigborhood": 29, "PlaceName": "נצח ישראל", "address": "מוהליבר 10, פתח תקווה", "name": "נצח ישראל" }, "geometry": { "type": "Point", "coordinates": [ 34.885031514333733, 32.087125167151541 ] } },
{ "type": "Feature", "properties": { "OBJECTID": 81, "Address_old": "קרול 20", "complex": 1, "Neigborhood": 30, "PlaceName": "פאר משה", "address": "קרול 20, פתח תקווה", "name": "פאר משה" }, "geometry": { "type": "Point", "coordinates": [ 34.878969790674923, 32.093873177561889 ] } },
{ "type": "Feature", "properties": { "OBJECTID": 82, "Address_old": "ריינס 16", "complex": 1, "Neigborhood": 9, "PlaceName": "נחלת דוד", "address": "ריינס 16, פתח תקווה", "name": "נחלת דוד" }, "geometry": { "type": "Point", "coordinates": [ 34.896170948831347, 32.094628630035558 ] } },
{ "type": "Feature", "properties": { "OBJECTID": 83, "Address_old": "קפלן 7", "complex": 1, "Neigborhood": 27, "PlaceName": "קפלן", "address": "קפלן 7, פתח תקווה", "name": "קפלן" }, "geometry": { "type": "Point", "coordinates": [ 34.869714924299721, 32.089935280277111 ] } },
{ "type": "Feature", "properties": { "OBJECTID": 84, "Address_old": "שיפר 43", "complex": 1, "Neigborhood": 6, "PlaceName": "שיפר", "address": "שיפר 43, פתח תקווה", "name": "שיפר" }, "geometry": { "type": "Point", "coordinates": [ 34.892737484878047, 32.098092124851419 ] } },
{ "type": "Feature", "properties": { "OBJECTID": 85, "Address_old": "שפרינצק 17", "complex": 1, "Neigborhood": 17, "PlaceName": "תיכון אפיקים", "address": "שפרינצק 17, פתח תקווה", "name": "תיכון אפיקים" }, "geometry": { "type": "Point", "coordinates": [ 34.892326764846537, 32.07556431876759 ] } }
]
}
